[{"OBJECT_NAME":"OBJECT J","OBJECT_ID":"2023-085J","EPOCH":"2026-03-09T22:47:59.920512","MEAN_MOTION":15.31507187,"ECCENTRICITY":0.00067028,"INCLINATION":97.4828,"RA_OF_ASC_NODE":180.1819,"ARG_OF_PERICENTER":41.7877,"MEAN_ANOMALY":318.3875,"EPHEMERIS_TYPE":0,"CLASSIFICATION_TYPE":"U","NORAD_CAT_ID":57012,"ELEMENT_SET_NO":999,"REV_AT_EPOCH":15156,"BSTAR":0.00064525349,"MEAN_MOTION_DOT":0.00019595,"MEAN_MOTION_DDOT":0},{"OBJECT_NAME":"STARLINK-32039","OBJECT_ID":"2024-150X","EPOCH":"2026-03-09T21:24:43.197696","MEAN_MOTION":15.30221565,"ECCENTRICITY":9.665e-5,"INCLINATION":53.1608,"RA_OF_ASC_NODE":308.8395,"ARG_OF_PERICENTER":77.1531,"MEAN_ANOMALY":282.9577,"EPHEMERIS_TYPE":0,"CLASSIFICATION_TYPE":"U","NORAD_CAT_ID":60604,"ELEMENT_SET_NO":999,"REV_AT_EPOCH":8803,"BSTAR":-0.0002168727,"MEAN_MOTION_DOT":-6.781e-5,"MEAN_MOTION_DDOT":0}]
